start=new Date('2022-06-20T00:00:00.000Z').valueOf();
sats=[{"INCLINATION":"53.2153","PERIOD":"91.531","DECAY_DATE":null,"MEAN_MOTION_DOT":"-0.00017100","MEAN_ANOMALY":"66.8938","TLE_LINE2":"2 52306  53.2153  81.6585 0003770   7.7342  66.8938 15.73233415  1308","CENTER_NAME":"EARTH","RCS_SIZE":"LARGE","EPHEMERIS_TYPE":"0","BSTAR":"-0.00011742000000","REF_FRAME":"TEME","GP_ID":"206450434","NORAD_CAT_ID":"52306","APOAPSIS":"352.201","PERIAPSIS":"347.129","SITE":"AFETR","MEAN_MOTION":"15.73233415","SEMIMAJOR_AXIS":"6727.800","OBJECT_ID":"2022-041AX","REV_AT_EPOCH":"130","OBJECT_TYPE":"PAYLOAD","EPOCH":"2022-06-19T22:00:00.999936","ECCENTRICITY":"0.00037700","LAUNCH_DATE":"2022-04-21","CLASSIFICATION_TYPE":"U","MEAN_MOTION_DDOT":"0.0000000000000","COUNTRY_CODE":"US","OBJECT_NAME":"STARLINK-3747","TIME_SYSTEM":"UTC","ELEMENT_SET_NO":"999","RA_OF_ASC_NODE":"81.6585","MEAN_ELEMENT_THEORY":"SGP4","FILE":"3497669","TLE_LINE1":"1 52306U 22041AX  22170.91667824 -.00017100  00000-0 -11742-3 0  9999","ARG_OF_PERICENTER":"7.7342"},{"EPOCH":"2022-06-19T22:00:00.999936","OBJECT_TYPE":"PAYLOAD","REV_AT_EPOCH":"130","SEMIMAJOR_AXIS":"6795.197","OBJECT_ID":"2022-041AY","MEAN_MOTION":"15.49885640","SITE":"AFETR","PERIAPSIS":"416.241","APOAPSIS":"417.884","NORAD_CAT_ID":"52307","GP_ID":"206450292","REF_FRAME":"TEME","BSTAR":"-0.00000697040000","RCS_SIZE":"LARGE","EPHEMERIS_TYPE":"0","TLE_LINE2":"2 52307  53.2174  83.1546 0001209  89.4664  21.0545 15.49885640  1308","CENTER_NAME":"EARTH","MEAN_ANOMALY":"21.0545","MEAN_MOTION_DOT":"-0.00000847","DECAY_DATE":null,"PERIOD":"92.910","INCLINATION":"53.2174","TLE_LINE1":"1 52307U 22041AY  22170.91667824 -.00000847  00000-0 -69704-5 0  9993","ARG_OF_PERICENTER":"89.4664","FILE":"3497669","MEAN_ELEMENT_THEORY":"SGP4","RA_OF_ASC_NODE":"83.1546","ELEMENT_SET_NO":"999","TIME_SYSTEM":"UTC","OBJECT_NAME":"STARLINK-3755","COUNTRY_CODE":"US","MEAN_MOTION_DDOT":"0.0000000000000","CLASSIFICATION_TYPE":"U","LAUNCH_DATE":"2022-04-21","ECCENTRICITY":"0.00012090"},{"REV_AT_EPOCH":"130","EPOCH":"2022-06-19T22:00:00.999936","OBJECT_TYPE":"PAYLOAD","APOAPSIS":"352.283","NORAD_CAT_ID":"52308","PERIAPSIS":"347.483","SITE":"AFETR","OBJECT_ID":"2022-041AZ","SEMIMAJOR_AXIS":"6728.018","MEAN_MOTION":"15.73156895","MEAN_ANOMALY":"74.0505","MEAN_MOTION_DOT":"0.00021947","RCS_SIZE":"LARGE","EPHEMERIS_TYPE":"0","TLE_LINE2":"2 52308  53.2150  81.6562 0003567   1.9233  74.0505 15.73156895  1308","CENTER_NAME":"EARTH","REF_FRAME":"TEME","GP_ID":"206450536","BSTAR":"0.00016065000000","INCLINATION":"53.2150","PERIOD":"91.536","DECAY_DATE":null,"MEAN_ELEMENT_THEORY":"SGP4","ARG_OF_PERICENTER":"1.9233","TLE_LINE1":"1 52308U 22041AZ  22170.91667824  .00021947  00000-0  16065-3 0  9996","FILE":"3497669","ELEMENT_SET_NO":"999","RA_OF_ASC_NODE":"81.6562","COUNTRY_CODE":"US","OBJECT_NAME":"STARLINK-3745","TIME_SYSTEM":"UTC","LAUNCH_DATE":"2022-04-21","ECCENTRICITY":"0.00035670","CLASSIFICATION_TYPE":"U","MEAN_MOTION_DDOT":"0.0000000000000"},{"EPOCH":"2022-06-19T22:00:00.999936","OBJECT_TYPE":"PAYLOAD","REV_AT_EPOCH":"130","SITE":"AFETR","OBJECT_ID":"2022-041BA","SEMIMAJOR_AXIS":"6727.903","MEAN_MOTION":"15.73197233","APOAPSIS":"352.080","NORAD_CAT_ID":"52309","PERIAPSIS":"347.456","GP_ID":"206450738","REF_FRAME":"TEME","BSTAR":"0.00016146000000","MEAN_MOTION_DOT":"0.00022100","MEAN_ANOMALY":"62.3013","RCS_SIZE":"LARGE","EPHEMERIS_TYPE":"0","CENTER_NAME":"EARTH","TLE_LINE2":"2 52309  53.2150  81.6588 0003437  12.9459  62.3013 15.73197233  1300","PERIOD":"91.533","DECAY_DATE":null,"INCLINATION":"53.2150","ARG_OF_PERICENTER":"12.9459","TLE_LINE1":"1 52309U 22041BA  22170.91667824  .00022100  00000-0  16146-3 0  9999","FILE":"3497669","MEAN_ELEMENT_THEORY":"SGP4","RA_OF_ASC_NODE":"81.6588","ELEMENT_SET_NO":"999","OBJECT_NAME":"STARLINK-3756","TIME_SYSTEM":"UTC","COUNTRY_CODE":"US","CLASSIFICATION_TYPE":"U","MEAN_MOTION_DDOT":"0.0000000000000","ECCENTRICITY":"0.00034370","LAUNCH_DATE":"2022-04-21"},{"CLASSIFICATION_TYPE":"U","MEAN_MOTION_DDOT":"0.0000000000000","LAUNCH_DATE":"2022-04-21","ECCENTRICITY":"0.00036620","OBJECT_NAME":"STARLINK-3688","TIME_SYSTEM":"UTC","COUNTRY_CODE":"US","RA_OF_ASC_NODE":"81.6541","ELEMENT_SET_NO":"999","FILE":"3497669","ARG_OF_PERICENTER":"9.4531","TLE_LINE1":"1 52310U 22041BB  22170.91667824  .00021226  00000-0  15537-3 0  9992","MEAN_ELEMENT_THEORY":"SGP4","PERIOD":"91.534","DECAY_DATE":null,"INCLINATION":"53.2151","BSTAR":"0.00015537000000","REF_FRAME":"TEME","GP_ID":"206450088","MEAN_ANOMALY":"67.5964","MEAN_MOTION_DOT":"0.00021226","CENTER_NAME":"EARTH","TLE_LINE2":"2 52310  53.2151  81.6541 0003662   9.4531  67.5964 15.73181565  1307","RCS_SIZE":"LARGE","EPHEMERIS_TYPE":"0","SITE":"AFETR","MEAN_MOTION":"15.73181565","SEMIMAJOR_AXIS":"6727.948","OBJECT_ID":"2022-041BB","NORAD_CAT_ID":"52310","APOAPSIS":"352.277","PERIAPSIS":"347.349","EPOCH":"2022-06-19T22:00:00.999936","OBJECT_TYPE":"PAYLOAD","REV_AT_EPOCH":"130"},{"ELEMENT_SET_NO":"999","RA_OF_ASC_NODE":"81.6564","MEAN_ELEMENT_THEORY":"SGP4","FILE":"3497669","TLE_LINE1":"1 52311U 22041BC  22170.91667824  .00022861  00000-0  16685-3 0  9994","ARG_OF_PERICENTER":"3.9180","LAUNCH_DATE":"2022-04-21","ECCENTRICITY":"0.00037780","CLASSIFICATION_TYPE":"U","MEAN_MOTION_DDOT":"0.0000000000000","COUNTRY_CODE":"US","OBJECT_NAME":"STARLINK-3750","TIME_SYSTEM":"UTC","APOAPSIS":"352.313","NORAD_CAT_ID":"52311","PERIAPSIS":"347.229","SITE":"AFETR","MEAN_MOTION":"15.73196282","SEMIMAJOR_AXIS":"6727.906","OBJECT_ID":"2022-041BC","REV_AT_EPOCH":"130","EPOCH":"2022-06-19T22:00:00.999936","OBJECT_TYPE":"PAYLOAD","INCLINATION":"53.2152","PERIOD":"91.533","DECAY_DATE":null,"MEAN_MOTION_DOT":"0.00022861","MEAN_ANOMALY":"72.5112","TLE_LINE2":"2 52311  53.2152  81.6564 0003778   3.9180  72.5112 15.73196282  1304","CENTER_NAME":"EARTH","EPHEMERIS_TYPE":"0","RCS_SIZE":"LARGE","BSTAR":"0.00016685000000","GP_ID":"206450639","REF_FRAME":"TEME"},{"OBJECT_TYPE":"PAYLOAD","EPOCH":"2022-06-19T22:00:00.999936","REV_AT_EPOCH":"130","SEMIMAJOR_AXIS":"6727.874","OBJECT_ID":"2022-041BD","MEAN_MOTION":"15.73207587","SITE":"AFETR","PERIAPSIS":"347.186","APOAPSIS":"352.291","NORAD_CAT_ID":"52312","REF_FRAME":"TEME","GP_ID":"206450191","BSTAR":"-0.00003749500000","RCS_SIZE":"LARGE","EPHEMERIS_TYPE":"0","CENTER_NAME":"EARTH","TLE_LINE2":"2 52312  53.2152  81.6526 0003794   9.8867  67.7742 15.73207587  1304","MEAN_ANOMALY":"67.7742","MEAN_MOTION_DOT":"-0.00005887","DECAY_DATE":null,"PERIOD":"91.533","INCLINATION":"53.2152","ARG_OF_PERICENTER":"9.8867","TLE_LINE1":"1 52312U 22041BD  22170.91667824 -.00005887  00000-0 -37495-4 0  9999","FILE":"3497669","MEAN_ELEMENT_THEORY":"SGP4","RA_OF_ASC_NODE":"81.6526","ELEMENT_SET_NO":"999","TIME_SYSTEM":"UTC","OBJECT_NAME":"STARLINK-3752","COUNTRY_CODE":"US","MEAN_MOTION_DDOT":"0.0000000000000","CLASSIFICATION_TYPE":"U","LAUNCH_DATE":"2022-04-21","ECCENTRICITY":"0.00037940"},{"RA_OF_ASC_NODE":"81.6526","ELEMENT_SET_NO":"999","ARG_OF_PERICENTER":"7.1269","TLE_LINE1":"1 52313U 22041BE  22170.91667824  .00022984  00000-0  16772-3 0  9999","FILE":"3497669","MEAN_ELEMENT_THEORY":"SGP4","MEAN_MOTION_DDOT":"0.0000000000000","CLASSIFICATION_TYPE":"U","LAUNCH_DATE":"2022-04-21","ECCENTRICITY":"0.00037240","TIME_SYSTEM":"UTC","OBJECT_NAME":"STARLINK-3749","COUNTRY_CODE":"US","OBJECT_ID":"2022-041BE","SEMIMAJOR_AXIS":"6727.904","MEAN_MOTION":"15.73197042","SITE":"AFETR","PERIAPSIS":"347.263","APOAPSIS":"352.274","NORAD_CAT_ID":"52313","EPOCH":"2022-06-19T22:00:00.999936","OBJECT_TYPE":"PAYLOAD","REV_AT_EPOCH":"130","DECAY_DATE":null,"PERIOD":"91.533","INCLINATION":"53.2155","REF_FRAME":"TEME","GP_ID":"206450805","BSTAR":"0.00016772000000","EPHEMERIS_TYPE":"0","RCS_SIZE":"LARGE","CENTER_NAME":"EARTH","TLE_LINE2":"2 52313  53.2155  81.6526 0003724   7.1269  71.1210 15.73197042  1301","MEAN_MOTION_DOT":"0.00022984","MEAN_ANOMALY":"71.1210"},{"FILE":"3497669","TLE_LINE1":"1 52331U 22045A   22170.91667824 -.00720957  00000-0 -29941-1 0  9990","ARG_OF_PERICENTER":"44.4640","MEAN_ELEMENT_THEORY":"SGP4","RA_OF_ASC_NODE":"189.5796","ELEMENT_SET_NO":"999","OBJECT_NAME":"STARLINK-3889","TIME_SYSTEM":"UTC","COUNTRY_CODE":"US","CLASSIFICATION_TYPE":"U","MEAN_MOTION_DDOT":"0.0000000000000","LAUNCH_DATE":"2022-04-29","ECCENTRICITY":"0.00015910","EPOCH":"2022-06-19T22:00:00.999936","OBJECT_TYPE":"PAYLOAD","REV_AT_EPOCH":"130","SITE":"AFETR","MEAN_MOTION":"15.25686974","SEMIMAJOR_AXIS":"6866.860","OBJECT_ID":"2022-045A","NORAD_CAT_ID":"52331","APOAPSIS":"489.818","PERIAPSIS":"487.633","BSTAR":"-0.02994100000000","GP_ID":"206450740","REF_FRAME":"TEME","MEAN_MOTION_DOT":"-0.00720957","MEAN_ANOMALY":"262.3483","CENTER_NAME":"EARTH","TLE_LINE2":"2 52331  53.2173 189.5796 0001591  44.4640 262.3483 15.25686974  1305","RCS_SIZE":"LARGE","EPHEMERIS_TYPE":"0","PERIOD":"94.384","DECAY_DATE":null,"INCLINATION":"53.2173"},{"MEAN_MOTION_DDOT":"0.0000000000000","CLASSIFICATION_TYPE":"U","LAUNCH_DATE":"2022-04-29","ECCENTRICITY":"0.00016370","TIME_SYSTEM":"UTC","OBJECT_NAME":"STARLINK-3831","COUNTRY_CODE":"US","RA_OF_ASC_NODE":"189.5613","ELEMENT_SET_NO":"999","FILE":"3497669","TLE_LINE1":"1 52332U 22045B   22170.91667824 -.00721704  00000-0 -30517-1 0  9993","ARG_OF_PERICENTER":"46.0089","MEAN_ELEMENT_THEORY":"SGP4","DECAY_DATE":null,"PERIOD":"94.420","INCLINATION":"53.2173","BSTAR":"-0.03051700000000","REF_FRAME":"TEME","GP_ID":"206450090","TLE_LINE2":"2 52332  53.2173 189.5613 0001637  46.0089 223.9780 15.25092774  1302","CENTER_NAME":"EARTH","EPHEMERIS_TYPE":"0","RCS_SIZE":"LARGE","MEAN_ANOMALY":"223.9780","MEAN_MOTION_DOT":"-0.00721704","MEAN_MOTION":"15.25092774","SEMIMAJOR_AXIS":"6868.644","OBJECT_ID":"2022-045B","SITE":"AFETR","PERIAPSIS":"489.384","NORAD_CAT_ID":"52332","APOAPSIS":"491.633","OBJECT_TYPE":"PAYLOAD","EPOCH":"2022-06-19T22:00:00.999936","REV_AT_EPOCH":"130"}];
